STARLINK-31933          
1 59874U 24098S   26068.01466107  .00002962  00000+0  11716-3 0  9990
2 59874  42.9985 281.7463 0000885 283.3365  76.7387 15.27564911101746
HAWK-11B                
1 62379U 24247C   26068.44730104  .00009093  00000+0  32842-3 0  9993
2 62379  45.0161 115.7610 0004690 333.0326  27.0314 15.28847070 67738
